NOAA 15                 
1 25338U 98030A   24066.55315747  .00000293  00000+0  13948-3 0  9997
2 25338  98.5810  95.7721 0009243 263.4500  96.5629 14.26507052342551
NOAA 18                 
1 28654U 05018A   24066.54564940  .00000303  00000+0  18587-3 0  9991
2 28654  98.8811 144.3474 0013952 358.3655   1.7470 14.13137824968673
NOAA 19                 
1 33591U 09005A   24066.55361099  .00000265  00000+0  16698-3 0  9996
2 33591  99.0617 121.2122 0013345 218.2874 141.7351 14.12940546776877
METOP-B                 
1 38771U 12049A   24066.54851119  .00000211  00000+0  11618-3 0  9997
2 38771  98.6414 126.0148 0000832  64.5829 295.5434 14.21481123594972
SARAL                   
1 39086U 13009A   24066.60555019  .00000244  00000+0  10653-3 0  9995
2 39086  98.5498 253.1396 0001341 194.0461 166.0685 14.32358099576390
METOP-C                 
1 43689U 18087A   24066.58516483  .00000207  00000+0  11453-3 0  9997
2 43689  98.6933 127.1843 0002735  38.6458 321.4915 14.21493024276546
ANGELS                  
1 44876U 19092D   24066.46585250  .00008141  00000+0  32773-3 0  9991
2 44876  97.4762 255.0135 0009584 328.1218  31.9439 15.25100724233697
GAZELLE                 
1 54023U 22127A   24066.56864081  .00000296  00000+0  10326-3 0  9995
2 54023  98.3402  63.1635 0013383 175.9202 184.2099 14.42015216 74336
EOS-6 (OCEANSAT-3)      
1 54361U 22158A   24066.53858037  .00000642  00000+0  18865-3 0  9996
2 54361  98.3482 164.9803 0001193 115.9188 244.2127 14.46989334 67425
